STARLINK-31187          
1 58790U 24012D   26068.96342531  .00000327  00000+0  21422-4 0  9999
2 58790  43.0030 164.0660 0001509 274.5972  85.4707 15.27574505121270
JINJUSAT-1B             
1 63210U 25052A   26068.66363707  .00019955  00000+0  68430-3 0  9998
2 63210  97.4113 325.4613 0005550  82.1930 277.9941 15.30194857 54866
